STARLINK-32108          
1 59682U 24086A   26068.05937325  .00000536  00000+0  29013-4 0  9998
2 59682  43.0039  67.0607 0001057 271.5921  88.4809 15.27573212103968
TEVEL2-9                
1 63237U 25052AD  26068.70229538  .00018694  00000+0  67240-3 0  9992
2 63237  97.4057 324.3929 0007990 124.2475 235.9522 15.28633834 54816
